start=new Date('2021-12-03T00:00:00.000Z').valueOf();
sats=[{"SITE":"AFETR","REV_AT_EPOCH":"9008","SEMIMAJOR_AXIS":"6925.357","MEAN_MOTION_DOT":"-0.00000055","EPOCH":"2021-12-02T17:27:37.440288","OBJECT_TYPE":"PAYLOAD","BSTAR":"0.00001524500000","GP_ID":"190947342","TLE_LINE1":"1 45582U 20025BD  21336.72751667 -.00000055  00000-0  15245-4 0  9991","MEAN_ANOMALY":"285.3331","DECAY_DATE":null,"COUNTRY_CODE":"US","PERIOD":"95.592","CLASSIFICATION_TYPE":"U","ECCENTRICITY":"0.00017620","OBJECT_NAME":"STARLINK-1337","NORAD_CAT_ID":"45582","REF_FRAME":"TEME","MEAN_MOTION":"15.06397200","RA_OF_ASC_NODE":"230.5885","OBJECT_ID":"2020-025BD","MEAN_ELEMENT_THEORY":"SGP4","LAUNCH_DATE":"2020-04-22","ARG_OF_PERICENTER":"74.7853","ELEMENT_SET_NO":"999","PERIAPSIS":"546.002","TLE_LINE2":"2 45582  53.0526 230.5885 0001762  74.7853 285.3331 15.06397200 90083","RCS_SIZE":"LARGE","TIME_SYSTEM":"UTC","MEAN_MOTION_DDOT":"0.0000000000000","INCLINATION":"53.0526","FILE":"3230919","CENTER_NAME":"EARTH","APOAPSIS":"548.442","EPHEMERIS_TYPE":"0"},{"TIME_SYSTEM":"UTC","MEAN_MOTION_DDOT":"0.0000000000000","INCLINATION":"53.0536","FILE":"3230933","CENTER_NAME":"EARTH","APOAPSIS":"548.366","EPHEMERIS_TYPE":"0","REF_FRAME":"TEME","OBJECT_NAME":"STARLINK-1340","NORAD_CAT_ID":"45583","MEAN_MOTION":"15.06402989","RA_OF_ASC_NODE":"230.6643","OBJECT_ID":"2020-025BE","LAUNCH_DATE":"2020-04-22","MEAN_ELEMENT_THEORY":"SGP4","PERIAPSIS":"546.042","ARG_OF_PERICENTER":"72.0202","ELEMENT_SET_NO":"999","RCS_SIZE":"LARGE","TLE_LINE2":"2 45583  53.0536 230.6643 0001678  72.0202 288.0970 15.06402989 90083","MEAN_ANOMALY":"288.0970","DECAY_DATE":null,"PERIOD":"95.592","COUNTRY_CODE":"US","CLASSIFICATION_TYPE":"U","ECCENTRICITY":"0.00016780","MEAN_MOTION_DOT":"0.00002902","SEMIMAJOR_AXIS":"6925.339","EPOCH":"2021-12-02T17:01:04.147392","REV_AT_EPOCH":"9008","SITE":"AFETR","OBJECT_TYPE":"PAYLOAD","BSTAR":"0.00021360000000","TLE_LINE1":"1 45583U 20025BE  21336.70907578  .00002902  00000-0  21360-3 0  9990","GP_ID":"190948033"},{"BSTAR":"0.00012298000000","GP_ID":"190941761","TLE_LINE1":"1 45584U 20025BF  21336.43263845  .00001550  00000-0  12298-3 0  9991","SITE":"AFETR","REV_AT_EPOCH":"9064","SEMIMAJOR_AXIS":"6925.347","MEAN_MOTION_DOT":"0.00001550","EPOCH":"2021-12-02T10:22:59.962080","OBJECT_TYPE":"PAYLOAD","ECCENTRICITY":"0.00025870","CLASSIFICATION_TYPE":"U","MEAN_ANOMALY":"288.5755","DECAY_DATE":null,"COUNTRY_CODE":"US","PERIOD":"95.592","LAUNCH_DATE":"2020-04-22","MEAN_ELEMENT_THEORY":"SGP4","ELEMENT_SET_NO":"999","ARG_OF_PERICENTER":"71.5515","PERIAPSIS":"545.421","TLE_LINE2":"2 45584  53.0530 231.9007 0002587  71.5515 288.5755 15.06400402 90643","RCS_SIZE":"LARGE","OBJECT_NAME":"STARLINK-1343","NORAD_CAT_ID":"45584","REF_FRAME":"TEME","MEAN_MOTION":"15.06400402","RA_OF_ASC_NODE":"231.9007","OBJECT_ID":"2020-025BF","APOAPSIS":"549.004","EPHEMERIS_TYPE":"0","TIME_SYSTEM":"UTC","MEAN_MOTION_DDOT":"0.0000000000000","INCLINATION":"53.0530","FILE":"3230859","CENTER_NAME":"EARTH"},{"MEAN_ANOMALY":"297.1666","PERIOD":"93.371","COUNTRY_CODE":"US","DECAY_DATE":null,"CLASSIFICATION_TYPE":"U","ECCENTRICITY":"0.00015060","SEMIMAJOR_AXIS":"6817.673","EPOCH":"2021-12-02T10:37:53.614560","MEAN_MOTION_DOT":"0.00052420","SITE":"AFETR","REV_AT_EPOCH":"9009","OBJECT_TYPE":"PAYLOAD","BSTAR":"0.00120300000000","TLE_LINE1":"1 45585U 20025BG  21336.44298165  .00052420  00000-0  12030-2 0  9991","GP_ID":"190947700","INCLINATION":"53.0564","MEAN_MOTION_DDOT":"0.0000000000000","TIME_SYSTEM":"UTC","CENTER_NAME":"EARTH","FILE":"3230933","EPHEMERIS_TYPE":"0","APOAPSIS":"440.565","MEAN_MOTION":"15.42227724","RA_OF_ASC_NODE":"228.3095","REF_FRAME":"TEME","NORAD_CAT_ID":"45585","OBJECT_NAME":"STARLINK-1345","OBJECT_ID":"2020-025BG","LAUNCH_DATE":"2020-04-22","MEAN_ELEMENT_THEORY":"SGP4","RCS_SIZE":"LARGE","TLE_LINE2":"2 45585  53.0564 228.3095 0001506  62.9492 297.1666 15.42227724 90096","PERIAPSIS":"438.511","ARG_OF_PERICENTER":"62.9492","ELEMENT_SET_NO":"999"},{"CLASSIFICATION_TYPE":"U","ECCENTRICITY":"0.00016620","DECAY_DATE":null,"PERIOD":"95.592","COUNTRY_CODE":"US","MEAN_ANOMALY":"290.1412","TLE_LINE1":"1 45586U 20025BH  21336.45475933  .00000692  00000-0  65358-4 0  9990","GP_ID":"190942763","BSTAR":"0.00006535800000","OBJECT_TYPE":"PAYLOAD","SEMIMAJOR_AXIS":"6925.365","EPOCH":"2021-12-02T10:54:51.206112","MEAN_MOTION_DOT":"0.00000692","REV_AT_EPOCH":"9063","SITE":"AFETR","APOAPSIS":"548.381","EPHEMERIS_TYPE":"0","FILE":"3230859","CENTER_NAME":"EARTH","TIME_SYSTEM":"UTC","INCLINATION":"53.0550","MEAN_MOTION_DDOT":"0.0000000000000","PERIAPSIS":"546.079","ARG_OF_PERICENTER":"69.9756","ELEMENT_SET_NO":"999","RCS_SIZE":"LARGE","TLE_LINE2":"2 45586  53.0550 231.7985 0001662  69.9756 290.1412 15.06394623 90636","MEAN_ELEMENT_THEORY":"SGP4","LAUNCH_DATE":"2020-04-22","OBJECT_ID":"2020-025BH","REF_FRAME":"TEME","OBJECT_NAME":"STARLINK-1347","NORAD_CAT_ID":"45586","MEAN_MOTION":"15.06394623","RA_OF_ASC_NODE":"231.7985"},{"NORAD_CAT_ID":"45587","OBJECT_NAME":"STARLINK-1349","REF_FRAME":"TEME","RA_OF_ASC_NODE":"231.9470","MEAN_MOTION":"15.06395647","OBJECT_ID":"2020-025BJ","LAUNCH_DATE":"2020-04-22","MEAN_ELEMENT_THEORY":"SGP4","ELEMENT_SET_NO":"999","ARG_OF_PERICENTER":"64.1604","PERIAPSIS":"545.883","TLE_LINE2":"2 45587  53.0519 231.9470 0001941  64.1604 295.9585 15.06395647 90644","RCS_SIZE":"LARGE","TIME_SYSTEM":"UTC","INCLINATION":"53.0519","MEAN_MOTION_DDOT":"0.0000000000000","FILE":"3230859","CENTER_NAME":"EARTH","APOAPSIS":"548.571","EPHEMERIS_TYPE":"0","SITE":"AFETR","REV_AT_EPOCH":"9064","EPOCH":"2021-12-02T10:12:23.451552","SEMIMAJOR_AXIS":"6925.362","MEAN_MOTION_DOT":"0.00000383","OBJECT_TYPE":"PAYLOAD","BSTAR":"0.00004465500000","GP_ID":"190943514","TLE_LINE1":"1 45587U 20025BJ  21336.42527143  .00000383  00000-0  44655-4 0  9993","MEAN_ANOMALY":"295.9585","DECAY_DATE":null,"COUNTRY_CODE":"US","PERIOD":"95.592","ECCENTRICITY":"0.00019410","CLASSIFICATION_TYPE":"U"},{"MEAN_ELEMENT_THEORY":"SGP4","LAUNCH_DATE":"2020-04-22","ELEMENT_SET_NO":"999","ARG_OF_PERICENTER":"65.9373","PERIAPSIS":"545.934","TLE_LINE2":"2 45588  53.0543 233.2388 0001868  65.9373 294.1811 15.06395433 90595","RCS_SIZE":"LARGE","OBJECT_NAME":"STARLINK-1360","NORAD_CAT_ID":"45588","REF_FRAME":"TEME","MEAN_MOTION":"15.06395433","RA_OF_ASC_NODE":"233.2388","OBJECT_ID":"2020-025BK","APOAPSIS":"548.521","EPHEMERIS_TYPE":"0","TIME_SYSTEM":"UTC","INCLINATION":"53.0543","MEAN_MOTION_DDOT":"0.0000000000000","FILE":"3230859","CENTER_NAME":"EARTH","BSTAR":"0.00000545310000","GP_ID":"190942262","TLE_LINE1":"1 45588U 20025BK  21336.13776532 -.00000200  00000-0  54531-5 0  9994","REV_AT_EPOCH":"9059","SITE":"AFETR","MEAN_MOTION_DOT":"-0.00000200","SEMIMAJOR_AXIS":"6925.363","EPOCH":"2021-12-02T03:18:22.923648","OBJECT_TYPE":"PAYLOAD","CLASSIFICATION_TYPE":"U","ECCENTRICITY":"0.00018680","MEAN_ANOMALY":"294.1811","DECAY_DATE":null,"COUNTRY_CODE":"US","PERIOD":"95.592"},{"OBJECT_TYPE":"PAYLOAD","REV_AT_EPOCH":"9059","SITE":"AFETR","EPOCH":"2021-12-02T03:13:05.055456","SEMIMAJOR_AXIS":"6925.366","MEAN_MOTION_DOT":"-0.00002160","GP_ID":"190942512","TLE_LINE1":"1 45589U 20025BL  21336.13408629 -.00002160  00000-0 -12612-3 0  9994","BSTAR":"-0.00012612000000","COUNTRY_CODE":"US","PERIOD":"95.592","DECAY_DATE":null,"MEAN_ANOMALY":"288.2904","ECCENTRICITY":"0.00024530","CLASSIFICATION_TYPE":"U","OBJECT_ID":"2020-025BL","RA_OF_ASC_NODE":"233.2507","MEAN_MOTION":"15.06394450","OBJECT_NAME":"STARLINK-1364","NORAD_CAT_ID":"45589","REF_FRAME":"TEME","TLE_LINE2":"2 45589  53.0546 233.2507 0002453  71.8351 288.2904 15.06394450 90590","RCS_SIZE":"LARGE","ELEMENT_SET_NO":"999","ARG_OF_PERICENTER":"71.8351","PERIAPSIS":"545.532","LAUNCH_DATE":"2020-04-22","MEAN_ELEMENT_THEORY":"SGP4","CENTER_NAME":"EARTH","FILE":"3230859","INCLINATION":"53.0546","MEAN_MOTION_DDOT":"0.0000000000000","TIME_SYSTEM":"UTC","EPHEMERIS_TYPE":"0","APOAPSIS":"548.929"},{"PERIOD":"95.592","COUNTRY_CODE":"US","DECAY_DATE":null,"MEAN_ANOMALY":"294.1632","CLASSIFICATION_TYPE":"U","ECCENTRICITY":"0.00019840","OBJECT_TYPE":"PAYLOAD","MEAN_MOTION_DOT":"0.00002266","SEMIMAJOR_AXIS":"6925.335","EPOCH":"2021-12-02T05:11:09.900384","REV_AT_EPOCH":"9020","SITE":"AFETR","TLE_LINE1":"1 45590U 20025BM  21336.21608681  .00002266  00000-0  17094-3 0  9999","GP_ID":"190943264","BSTAR":"0.00017094000000","CENTER_NAME":"EARTH","FILE":"3230859","MEAN_MOTION_DDOT":"0.0000000000000","INCLINATION":"53.0543","TIME_SYSTEM":"UTC","EPHEMERIS_TYPE":"0","APOAPSIS":"548.574","OBJECT_ID":"2020-025BM","RA_OF_ASC_NODE":"262.8835","MEAN_MOTION":"15.06404409","REF_FRAME":"TEME","NORAD_CAT_ID":"45590","OBJECT_NAME":"STARLINK-1365","RCS_SIZE":"LARGE","TLE_LINE2":"2 45590  53.0543 262.8835 0001984  65.9565 294.1632 15.06404409 90208","PERIAPSIS":"545.826","ELEMENT_SET_NO":"999","ARG_OF_PERICENTER":"65.9565","MEAN_ELEMENT_THEORY":"SGP4","LAUNCH_DATE":"2020-04-22"},{"OBJECT_TYPE":"PAYLOAD","SEMIMAJOR_AXIS":"6925.362","MEAN_MOTION_DOT":"0.00000648","EPOCH":"2021-12-02T09:20:38.409216","REV_AT_EPOCH":"8386","SITE":"AFETR","TLE_LINE1":"1 45658U 20035B   21336.38933344  .00000648  00000-0  62419-4 0  9994","GP_ID":"190943270","BSTAR":"0.00006241900000","DECAY_DATE":null,"PERIOD":"95.592","COUNTRY_CODE":"US","MEAN_ANOMALY":"293.0942","ECCENTRICITY":"0.00021410","CLASSIFICATION_TYPE":"U","OBJECT_ID":"2020-035B","REF_FRAME":"TEME","NORAD_CAT_ID":"45658","OBJECT_NAME":"STARLINK-1441","RA_OF_ASC_NODE":"222.1031","MEAN_MOTION":"15.06395662","PERIAPSIS":"545.744","ARG_OF_PERICENTER":"67.0272","ELEMENT_SET_NO":"999","RCS_SIZE":"LARGE","TLE_LINE2":"2 45658  53.0538 222.1031 0002141  67.0272 293.0942 15.06395662 83864","MEAN_ELEMENT_THEORY":"SGP4","LAUNCH_DATE":"2020-06-04","FILE":"3230859","CENTER_NAME":"EARTH","TIME_SYSTEM":"UTC","MEAN_MOTION_DDOT":"0.0000000000000","INCLINATION":"53.0538","APOAPSIS":"548.710","EPHEMERIS_TYPE":"0"}];
